#dP2022  7 20 18  0  0.00000000      96 __u+U ITR00 EXT  IAC
## 2219 324000.00000000   900.00000000 59780 0.7500000000000
+  116   C06C07C08C09C10C11C12C13C14C16C19C20C21C22C23C24C25
+        C26C27C28C29C30C32C33C34C35C36C37C38C39C40C41C42C43
+        C44C45C46E01E02E03E04E05E07E08E09E10E11E12E13E14E15
+        E18E19E21E24E25E26E27E30E31E33E34E36G01G02G03G04G05
+        G06G07G08G09G10G11G12G13G14G15G16G17G18G19G20G21G22
+        G23G24G25G26G27G28G29G30G31G32J02J03R01R02R03R04R05
+        R07R08R09R11R12R13R14R15R17R18R19R20R21R24  0  0  0
++        10 10  9 10  9 10 10 10 12 11  9 10 10 10  9  9  8
++         8  8  9  8  8  9  8  9  7  8  8  9 10 11  7  9  9
++         8  7  7  8  7  7  7  8  8  9  6  6  7  7  7  8  8
++         8  8  8  7  7  7  7  8  6  6  9  7  8  7  9  6 10
++         6  7  8  8  7  7  8  6  8  6  9  8  7 10  6  8  7
++         8  8  7  7  7  7  7  7  6  6 10 10  9  7 10  7  7
++         7  7  6  8  9  8  8  9  7  7  9  9  8  8  0  0  0
%c M  cc GPS ccc cccc cccc cccc cccc ccccc ccccc ccccc ccccc
%c cc cc ccc ccc cccc cccc cccc cccc ccccc ccccc ccccc ccccc
%f  0.0000000  0.000000000  0.00000000000  0.000000000000000
%f  0.0000000  0.000000000  0.00000000000  0.000000000000000
%i    0    0    0    0      0      0      0      0         0
%i    0    0    0    0      0      0      0      0         0
/* IAC                                ULTRA-RAPID PREDICTION
/* S/V CLOCKS ARE ALIGNED TO GNSS TIME                      
/* G:C1WC2W R:C1PC2P E:C1XC5X C:C2IC6I J:C1CC2S             
/* PCV:IGS14_2215 OL/AL:FES2004  NONE     YN ORB:CoN CLK:CoN
*  2022 07 21 14 45  0.00000000
PC06  -7225.642828  23611.951395  34188.923690    441.257863
PC07 -16055.917267  36944.000391 -12691.424403   -458.954053
PC08   -323.891343  37402.648100 -19285.037150    412.724952
PC09   1418.600519  25807.800341  33762.879264   -920.758200
PC10 -10790.457782  36972.106075 -17444.548728    116.454582
PC11  -4477.994251 -16033.668020  22461.985214    487.887809
PC12  15567.940734 -10728.225375  20547.594588   -571.654967
PC13   3241.659944  39241.244894 -14572.952889     30.337794
PC14   3862.312945 -22188.906264 -16420.008672    551.524802
PC16  -9921.843341  22324.515915  34536.440797    143.325677
PC19   4953.605164  17055.377902  21553.489943   -257.658481
PC20 -10749.032290  23661.816639  10222.089871   -963.984522
PC21  21075.636578 -16392.397458   8082.079250    -27.137935
PC22  18473.604832    331.791319  20901.681381   -962.965385
PC23 -17875.449711 -11832.062150  17878.836131   -948.819752
PC24   2604.918434 -23730.164533 -14469.416752   -967.650287
PC25 -12158.414942 -24902.952617   3364.400819   -704.372739
PC26  13449.390348  -9829.236389 -22399.352659    706.416777
PC27 -22877.687297   6021.108580 -14818.691879    757.670839
PC28 -27163.108024  -6257.903492   1420.626561     92.577657
PC29  15751.416716  14819.419937 -17644.635849    584.700638
PC30  -5684.068794  15124.845220 -22761.141444    501.335511
PC32 -20964.774701  16546.464854  -8103.773020    586.641153
PC33  -5010.002650 -17073.388702 -21489.409084   -218.806117
PC34   4517.260431 -15400.833803  22814.749478   -353.869408
PC35  27126.871999   6083.545805  -2611.679813    376.057081
PC36  11232.108414  25387.366877  -2803.190971   -972.042646
PC37 -14274.665892   8172.226935  22563.438705   -919.707015
PC38  -6241.958302  33543.401052 -24639.054461     11.681890
PC39 -15963.304121  20502.403296  33185.222506     -0.086888
PC40 -23537.716481  33265.418071 -11235.854212     -0.930510
PC41 -18263.473449   -737.751658 -21039.058513    -98.925994
PC42  11566.099174 -23652.875818  -9170.149631   -952.811754
PC43 -14980.378779 -15140.306387  18009.049109      4.199325
PC44  22834.515694  -6757.329092  14556.490749    731.224087
PC45  17796.967338  11522.952145 -18126.080617    814.696598
PC46  -1349.364024  24482.513841  13302.166578   -443.849992
PE01 -16966.989724  11190.902995  21525.643754   -519.444763
PE02  16939.483342 -11397.351806 -21431.935086    313.358565
PE03  27737.067121 -10307.107463   -358.129374   -581.292078
PE04 -15529.238650  18469.954000  17154.258487  -1076.251245
PE05  23884.095054   4093.394257  17001.387719   -160.902364
PE07  -6220.709736 -15871.533999 -24190.660639   -689.510687
PE08  15335.956766 -18440.749877 -17334.317948   -567.492566
PE09   6182.906168  15737.751894  24300.363748   -595.346267
PE10   5381.510256  21187.920564 -19967.687324   -502.053772
PE11  14799.139762  22612.197854 -12105.282271   2930.022868
PE12  -4459.912770  16652.237979 -24074.073723    -73.726327
PE13 -14287.823228 -22570.005425  12746.137467    429.911211
PE14  18021.225170 -11699.100064   9872.152175  -1772.609402
PE15   4543.191785 -16489.926347  24155.050698    731.874703
PE18 -19211.304497  18710.837821 -18331.921106  -1188.050454
PE19 -28239.232597   8631.255619  -2053.797575  -5030.820721
PE21 -14709.367969  -9722.030637  23780.077251   -747.200275
PE24   3087.591853  27035.743001 -11636.455258   -737.117769
PE25  14596.963937  10040.979668 -23701.545534   -581.832269
PE26 -24709.478006 -14771.783348  -6905.839090  -1402.830914
PE27  -3911.704140 -26511.179374  12583.287656   -349.946114
PE30   9740.479259 -27126.462086  -6765.127814   -690.298177
PE31  -9102.307915  27537.291356   5937.619250   -500.298217
PE33 -20587.764051    722.679929 -21258.658595   -454.506197
PE34  20473.410272   -924.971038  21339.744358   -486.963232
PE36  24571.834952  15363.611875   6032.839348   -405.362778
PG01  21078.640249  12472.431928  10388.033690    317.097010
PG02 -13880.103948 -20849.420566   9257.478268   -650.983878
PG03  14020.768849   4957.207409  21888.097032   -312.953332
PG04  24027.273301   2800.239864  11079.120380   -143.213555
PG05  -8035.403807 -18449.198135 -17436.731790    -89.960459
PG06    397.338880 -18158.423679  19412.081205    394.080365
PG07  17289.997873  -2327.920564 -19747.757474    318.425184
PG08  19039.525238   7256.966206 -17259.957187    -77.158929
PG09  25768.077428  -6488.310802    627.303534   -316.767327
PG10 -11459.171905  22664.806120  -7079.094794   -499.849037
PG11 -10303.283755 -22413.467414   9874.885392    -10.444272
PG12 -12583.561224  -8597.287186  21498.452038   -249.886535
PG13  -9733.489530 -13417.499673 -20949.066901    352.744241
PG14  13273.934911 -21374.853609  -8337.651334   -111.510398
PG15 -19784.013377  -6036.941732 -17247.482446    -43.656305
PG16   1837.683541  22301.134431 -14219.079469   -516.576769
PG17  18112.812881 -13325.278428  14608.797277    639.425783
PG18 -16669.307161   2653.923586 -20549.453314    106.560194
PG19   9620.376213 -14681.325444  19606.644250    186.665000
PG20  -1752.832557 -25762.729436  -6705.935524    501.367013
PG21  21109.359293  16689.241347   2057.656504    161.006640
PG22  -6263.625895  15739.277213  20835.313925    296.147506
PG23 -15139.568045  14773.775690 -16003.374634    -33.880194
PG24 -22111.044867 -13840.720605   5748.198500    191.038578
PG25 -16211.607805   6428.327889  19667.031686    351.752243
PG26  -2914.830671  25947.296784  -3933.740620    219.459605
PG27   6231.046879  13913.917259 -21989.020175    220.912093
PG28   8873.094217 -25155.537059   1321.601438    336.223676
PG29 -26260.816512   4240.750276    325.256565   -535.624716
PG30   9604.045296 -12615.859400 -21199.756921   -534.464448
PG31   1188.323322  19616.636939  17512.737908   -186.617707
PG32 -15004.560850  15270.600859  15744.391065   -182.193249
PJ02 -29692.822022  25619.868138  20555.355828     -1.977722
PJ03 -26964.872154  17679.281589 -22586.871445     -0.212803
PR01 -15265.696793    185.723842 -20438.233923     11.830822
PR02 -20849.200907  13708.331470  -5097.248878    524.783718
PR03 -13168.287206  18174.061662  12114.958685     60.587538
PR04   1435.869332  12256.874553  22350.352439    151.388846
PR05  15419.077996   -232.691653  20336.982320     96.590049
PR07  12765.902996 -18122.389327 -12624.010552     38.168867
PR08  -1616.948233 -12265.684137 -22254.061763    -66.326961
PR09   9418.662632  -8810.368578 -21972.323125     66.961086
PR11  -6777.692293 -24053.561781   5085.242582     32.649515
PR12 -11566.351321 -10778.086088  20053.492956     19.412262
PR13  -9620.846414   7328.796172  22450.693393    -24.852290
PR14  -1592.769515  22836.008178  11295.023502     24.794218
PR15   6886.449789  23832.484512  -5930.067799     94.582313
PR17  -3753.164737   9860.034740 -23222.413785    545.436582
PR18  13310.448906  13479.068285 -17099.127706     33.754746
PR19  22689.919649  11189.677576  -3230.828081   -197.122091
PR20  19761.276549    648.608779  16138.817221    -75.063276
PR21   2080.475670 -10395.108101  23194.830355   -319.193820
PR24 -19467.901835    595.491958 -16473.414266    104.703656
EOF
